start=new Date('2022-09-20T00:00:00.000Z').valueOf();
sats=[{"RA_OF_ASC_NODE":"11.5202","OBJECT_TYPE":"PAYLOAD","ECCENTRICITY":"0.00040620","ARG_OF_PERICENTER":"0.5680","SEMIMAJOR_AXIS":"6727.874","TLE_LINE2":"2 53037  53.2165  11.5202 0004062   0.5680  85.6559 15.73207420  1307","MEAN_ANOMALY":"85.6559","REF_FRAME":"TEME","SITE":"AFETR","TIME_SYSTEM":"UTC","MEAN_MOTION_DDOT":"0.0000000000000","EPOCH":"2022-09-19T22:00:00.999936","PERIAPSIS":"347.006","GP_ID":"213035665","LAUNCH_DATE":"2022-07-07","CENTER_NAME":"EARTH","EPHEMERIS_TYPE":"0","TLE_LINE1":"1 53037U 22076BD  22262.91667824 -.00065845  00000-0 -46797-3 0  9998","FILE":"3578162","INCLINATION":"53.2165","NORAD_CAT_ID":"53037","APOAPSIS":"352.472","RCS_SIZE":"LARGE","ELEMENT_SET_NO":"999","OBJECT_NAME":"STARLINK-4153","COUNTRY_CODE":"US","BSTAR":"-0.00046797000000","MEAN_ELEMENT_THEORY":"SGP4","CLASSIFICATION_TYPE":"U","MEAN_MOTION":"15.73207420","PERIOD":"91.533","REV_AT_EPOCH":"130","DECAY_DATE":null,"MEAN_MOTION_DOT":"-0.00065845","OBJECT_ID":"2022-076BD"},{"EPOCH":"2022-09-19T22:00:00.999936","LAUNCH_DATE":"2022-07-07","GP_ID":"213035089","PERIAPSIS":"346.875","CENTER_NAME":"EARTH","EPHEMERIS_TYPE":"0","TLE_LINE1":"1 53038U 22076BE  22262.91667824 -.00028649  00000-0 -20017-3 0  9997","RA_OF_ASC_NODE":"11.5191","OBJECT_TYPE":"PAYLOAD","ECCENTRICITY":"0.00042470","ARG_OF_PERICENTER":"3.1011","REF_FRAME":"TEME","SEMIMAJOR_AXIS":"6727.867","TLE_LINE2":"2 53038  53.2149  11.5191 0004247   3.1011  83.7523 15.73209868  1307","MEAN_ANOMALY":"83.7523","TIME_SYSTEM":"UTC","SITE":"AFETR","MEAN_MOTION_DDOT":"0.0000000000000","MEAN_ELEMENT_THEORY":"SGP4","CLASSIFICATION_TYPE":"U","PERIOD":"91.533","MEAN_MOTION":"15.73209868","REV_AT_EPOCH":"130","DECAY_DATE":null,"MEAN_MOTION_DOT":"-0.00028649","OBJECT_ID":"2022-076BE","INCLINATION":"53.2149","FILE":"3578162","APOAPSIS":"352.589","NORAD_CAT_ID":"53038","RCS_SIZE":"LARGE","OBJECT_NAME":"STARLINK-4156","ELEMENT_SET_NO":"999","COUNTRY_CODE":"US","BSTAR":"-0.00020017000000"},{"OBJECT_ID":"2022-077A","MEAN_MOTION_DOT":"0.00001746","DECAY_DATE":null,"REV_AT_EPOCH":"1085","MEAN_MOTION":"15.01274367","PERIOD":"95.919","CLASSIFICATION_TYPE":"U","MEAN_ELEMENT_THEORY":"SGP4","BSTAR":"0.00014042000000","COUNTRY_CODE":"US","RCS_SIZE":"LARGE","OBJECT_NAME":"STARLINK-4362","ELEMENT_SET_NO":"999","NORAD_CAT_ID":"53043","APOAPSIS":"564.333","FILE":"3578162","INCLINATION":"97.6564","TLE_LINE1":"1 53043U 22077A   22262.84783451  .00001746  00000-0  14042-3 0  9999","EPHEMERIS_TYPE":"0","CENTER_NAME":"EARTH","PERIAPSIS":"561.602","LAUNCH_DATE":"2022-07-11","GP_ID":"213035185","EPOCH":"2022-09-19T20:20:52.901664","MEAN_MOTION_DDOT":"0.0000000000000","SITE":"AFWTR","TIME_SYSTEM":"UTC","SEMIMAJOR_AXIS":"6941.103","TLE_LINE2":"2 53043  97.6564  82.8008 0001967  53.6730 306.4675 15.01274367 10858","MEAN_ANOMALY":"306.4675","REF_FRAME":"TEME","ARG_OF_PERICENTER":"53.6730","ECCENTRICITY":"0.00019670","RA_OF_ASC_NODE":"82.8008","OBJECT_TYPE":"PAYLOAD"},{"PERIAPSIS":"561.406","LAUNCH_DATE":"2022-07-11","GP_ID":"213005986","CENTER_NAME":"EARTH","EPOCH":"2022-09-19T18:39:33.618816","TLE_LINE1":"1 53044U 22077B   22262.77747244  .00001261  00000-0  10274-3 0  9997","EPHEMERIS_TYPE":"0","MEAN_ANOMALY":"308.3691","TLE_LINE2":"2 53044  97.6563  82.7328 0002291  51.7740 308.3691 15.01265169 11426","SEMIMAJOR_AXIS":"6941.131","REF_FRAME":"TEME","SITE":"AFWTR","TIME_SYSTEM":"UTC","OBJECT_TYPE":"PAYLOAD","RA_OF_ASC_NODE":"82.7328","ECCENTRICITY":"0.00022910","ARG_OF_PERICENTER":"51.7740","MEAN_MOTION_DDOT":"0.0000000000000","REV_AT_EPOCH":"1142","DECAY_DATE":null,"MEAN_ELEMENT_THEORY":"SGP4","CLASSIFICATION_TYPE":"U","MEAN_MOTION":"15.01265169","PERIOD":"95.919","OBJECT_ID":"2022-077B","MEAN_MOTION_DOT":"0.00001261","NORAD_CAT_ID":"53044","APOAPSIS":"564.586","FILE":"3577971","INCLINATION":"97.6563","COUNTRY_CODE":"US","BSTAR":"0.00010274000000","ELEMENT_SET_NO":"999","RCS_SIZE":"LARGE","OBJECT_NAME":"STARLINK-4349"},{"ARG_OF_PERICENTER":"53.7994","ECCENTRICITY":"0.00021440","OBJECT_TYPE":"PAYLOAD","RA_OF_ASC_NODE":"82.5340","TIME_SYSTEM":"UTC","SITE":"AFWTR","REF_FRAME":"TEME","MEAN_ANOMALY":"306.3428","TLE_LINE2":"2 53045  97.6556  82.5340 0002144  53.7994 306.3428 15.01253895 10812","SEMIMAJOR_AXIS":"6941.166","MEAN_MOTION_DDOT":"0.0000000000000","EPOCH":"2022-09-19T13:49:19.459488","CENTER_NAME":"EARTH","GP_ID":"213035889","LAUNCH_DATE":"2022-07-11","PERIAPSIS":"561.542","EPHEMERIS_TYPE":"0","TLE_LINE1":"1 53045U 22077C   22262.57591967  .00000909  00000-0  75378-4 0  9990","INCLINATION":"97.6556","FILE":"3578162","APOAPSIS":"564.519","NORAD_CAT_ID":"53045","OBJECT_NAME":"STARLINK-4350","RCS_SIZE":"LARGE","ELEMENT_SET_NO":"999","BSTAR":"0.00007537800000","COUNTRY_CODE":"US","PERIOD":"95.920","MEAN_MOTION":"15.01253895","CLASSIFICATION_TYPE":"U","MEAN_ELEMENT_THEORY":"SGP4","DECAY_DATE":null,"REV_AT_EPOCH":"1081","MEAN_MOTION_DOT":"0.00000909","OBJECT_ID":"2022-077C"},{"FILE":"3578162","INCLINATION":"97.6562","NORAD_CAT_ID":"53046","APOAPSIS":"564.596","RCS_SIZE":"LARGE","OBJECT_NAME":"STARLINK-4331","ELEMENT_SET_NO":"999","BSTAR":"0.00009857600000","COUNTRY_CODE":"US","MEAN_MOTION":"15.01257219","PERIOD":"95.920","CLASSIFICATION_TYPE":"U","MEAN_ELEMENT_THEORY":"SGP4","DECAY_DATE":null,"REV_AT_EPOCH":"1081","MEAN_MOTION_DOT":"0.00001207","OBJECT_ID":"2022-077D","ARG_OF_PERICENTER":"51.3832","ECCENTRICITY":"0.00022700","OBJECT_TYPE":"PAYLOAD","RA_OF_ASC_NODE":"82.5332","SITE":"AFWTR","TIME_SYSTEM":"UTC","MEAN_ANOMALY":"308.7595","TLE_LINE2":"2 53046  97.6562  82.5332 0002270  51.3832 308.7595 15.01257219 10811","SEMIMAJOR_AXIS":"6941.155","REF_FRAME":"TEME","MEAN_MOTION_DDOT":"0.0000000000000","EPOCH":"2022-09-19T13:48:57.983904","CENTER_NAME":"EARTH","PERIAPSIS":"561.445","LAUNCH_DATE":"2022-07-11","GP_ID":"213035505","EPHEMERIS_TYPE":"0","TLE_LINE1":"1 53046U 22077D   22262.57567111  .00001207  00000-0  98576-4 0  9992"},{"BSTAR":"-0.00001659000000","COUNTRY_CODE":"US","ELEMENT_SET_NO":"999","RCS_SIZE":"LARGE","OBJECT_NAME":"STARLINK-4352","NORAD_CAT_ID":"53047","APOAPSIS":"564.537","FILE":"3578162","INCLINATION":"97.6569","OBJECT_ID":"2022-077E","MEAN_MOTION_DOT":"-0.00000272","DECAY_DATE":null,"REV_AT_EPOCH":"1084","MEAN_MOTION":"15.01256084","PERIOD":"95.920","CLASSIFICATION_TYPE":"U","MEAN_ELEMENT_THEORY":"SGP4","MEAN_MOTION_DDOT":"0.0000000000000","SITE":"AFWTR","TIME_SYSTEM":"UTC","TLE_LINE2":"2 53047  97.6569  82.7291 0002180  37.2740 322.8635 15.01256084 10840","SEMIMAJOR_AXIS":"6941.159","MEAN_ANOMALY":"322.8635","REF_FRAME":"TEME","ARG_OF_PERICENTER":"37.2740","ECCENTRICITY":"0.00021800","OBJECT_TYPE":"PAYLOAD","RA_OF_ASC_NODE":"82.7291","TLE_LINE1":"1 53047U 22077E   22262.77378509 -.00000272  00000-0 -16590-4 0  9995","EPHEMERIS_TYPE":"0","CENTER_NAME":"EARTH","PERIAPSIS":"561.511","LAUNCH_DATE":"2022-07-11","GP_ID":"213034770","EPOCH":"2022-09-19T18:34:15.031776"},{"TLE_LINE1":"1 53048U 22077F   22262.64072268 -.00000929  00000-0 -67777-4 0  9997","EPHEMERIS_TYPE":"0","LAUNCH_DATE":"2022-07-11","GP_ID":"213035346","PERIAPSIS":"561.453","CENTER_NAME":"EARTH","EPOCH":"2022-09-19T15:22:38.439552","MEAN_MOTION_DDOT":"0.0000000000000","REF_FRAME":"TEME","MEAN_ANOMALY":"311.1710","TLE_LINE2":"2 53048  97.6574  82.5880 0002264  48.9709 311.1710 15.01255945 10813","SEMIMAJOR_AXIS":"6941.159","TIME_SYSTEM":"UTC","SITE":"AFWTR","OBJECT_TYPE":"PAYLOAD","RA_OF_ASC_NODE":"82.5880","ARG_OF_PERICENTER":"48.9709","ECCENTRICITY":"0.00022640","OBJECT_ID":"2022-077F","MEAN_MOTION_DOT":"-0.00000929","REV_AT_EPOCH":"1081","DECAY_DATE":null,"MEAN_ELEMENT_THEORY":"SGP4","CLASSIFICATION_TYPE":"U","PERIOD":"95.920","MEAN_MOTION":"15.01255945","COUNTRY_CODE":"US","BSTAR":"-0.00006777700000","OBJECT_NAME":"STARLINK-4355","RCS_SIZE":"LARGE","ELEMENT_SET_NO":"999","APOAPSIS":"564.596","NORAD_CAT_ID":"53048","INCLINATION":"97.6574","FILE":"3578162"},{"MEAN_MOTION_DOT":"0.00001622","OBJECT_ID":"2022-077G","MEAN_MOTION":"15.01256132","PERIOD":"95.920","MEAN_ELEMENT_THEORY":"SGP4","CLASSIFICATION_TYPE":"U","DECAY_DATE":null,"REV_AT_EPOCH":"1083","OBJECT_NAME":"STARLINK-4345","RCS_SIZE":"LARGE","ELEMENT_SET_NO":"999","BSTAR":"0.00013090000000","COUNTRY_CODE":"US","FILE":"3578162","INCLINATION":"97.6584","NORAD_CAT_ID":"53049","APOAPSIS":"564.678","EPHEMERIS_TYPE":"0","TLE_LINE1":"1 53049U 22077G   22262.76847479  .00001622  00000-0  13090-3 0  9992","EPOCH":"2022-09-19T18:26:36.221856","CENTER_NAME":"EARTH","PERIAPSIS":"561.370","GP_ID":"213035666","LAUNCH_DATE":"2022-07-11","MEAN_MOTION_DDOT":"0.0000000000000","ECCENTRICITY":"0.00023830","ARG_OF_PERICENTER":"55.0261","OBJECT_TYPE":"PAYLOAD","RA_OF_ASC_NODE":"82.7151","SITE":"AFWTR","TIME_SYSTEM":"UTC","TLE_LINE2":"2 53049  97.6584  82.7151 0002383  55.0261 305.1187 15.01256132 10834","MEAN_ANOMALY":"305.1187","SEMIMAJOR_AXIS":"6941.159","REF_FRAME":"TEME"},{"EPOCH":"2022-09-19T13:43:38.277984","GP_ID":"213035090","LAUNCH_DATE":"2022-07-11","PERIAPSIS":"561.398","CENTER_NAME":"EARTH","EPHEMERIS_TYPE":"0","TLE_LINE1":"1 53050U 22077H   22262.57197081  .00001112  00000-0  91163-4 0  9992","RA_OF_ASC_NODE":"82.5217","OBJECT_TYPE":"PAYLOAD","ARG_OF_PERICENTER":"64.0851","ECCENTRICITY":"0.00023310","REF_FRAME":"TEME","SEMIMAJOR_AXIS":"6941.151","TLE_LINE2":"2 53050  97.6582  82.5217 0002331  64.0851 296.0613 15.01258735 10803","MEAN_ANOMALY":"296.0613","TIME_SYSTEM":"UTC","SITE":"AFWTR","MEAN_MOTION_DDOT":"0.0000000000000","MEAN_ELEMENT_THEORY":"SGP4","CLASSIFICATION_TYPE":"U","PERIOD":"95.920","MEAN_MOTION":"15.01258735","REV_AT_EPOCH":"1080","DECAY_DATE":null,"MEAN_MOTION_DOT":"0.00001112","OBJECT_ID":"2022-077H","INCLINATION":"97.6582","FILE":"3578162","APOAPSIS":"564.634","NORAD_CAT_ID":"53050","ELEMENT_SET_NO":"999","RCS_SIZE":"LARGE","OBJECT_NAME":"STARLINK-4343","COUNTRY_CODE":"US","BSTAR":"0.00009116300000"}];
